#dP2019 12 17  0  0  0.00000000      97 __u+U IGS08 FIT  IAC
## 2084 172800.00000000   900.00000000 58834 0.0000000000000
+  114   C01C02C03C04C05C06C07C08C09C10C11C12C13C14C16C19C20
+        C21C22C23C24C25C26C27C28C29C30C32C33C34C35C36C37E01
+        E02E03E04E05E07E08E09E11E12E13E14E15E18E19E21E24E25
+        E26E27E30E31E33E36G01G02G03G04G05G06G07G08G09G10G11
+        G12G13G14G15G16G17G18G19G20G21G22G23G24G25G26G27G28
+        G29G30G31G32J01J02J03J07R01R02R03R05R07R08R09R11R12
+        R13R14R15R16R17R18R19R20R21R22R23R26  0  0  0  0  0
++        13 13 13 13 12  8  8  9  8  0  7  7  9  7  8  7  7
++         7  7  7  7  7  7  8  7  7  7  8  7  8  8  8  8  4
++         4  4  4  4  4  4  4  4  4  3  4  4  4  3  4  4  4
++         4  3  4  4  4  4  3  3  3  3  3  3  3  3  3  3  3
++         3  3  3  3  3  3  3  3  3  3  3  3  3  3  3  3  3
++         3  3  3  3  8  8  8 13  6  5  5  5  5  5  5  5  5
++         6  5  5  6  5  5  6  6  5  6  5  8  0  0  0  0  0
%c M  cc GPS ccc cccc cccc cccc cccc ccccc ccccc ccccc ccccc
%c cc cc ccc ccc cccc cccc cccc cccc ccccc ccccc ccccc ccccc
%f  1.2500000  1.025000000  0.00000000000  0.000000000000000
%f  0.0000000  0.000000000  0.00000000000  0.000000000000000
%i    0    0    0    0      0      0      0      0         0
%i    0    0    0    0      0      0      0      0         0
/* INFORMATION & ANALYSIS CENTER (IAC)            FINAL DATA
/* S/V CLOCKS ARE ALIGNED TO GNSS TIME                      
/* G:C1WC2W R:C1PC2P E:C1XC5X C:C2IC6I J:C1CC2S             
/* PCV:IGS14_2082 OL/AL:FES2004  NONE     YN ORB:CoN CLK:CoN
*  2019 12 17  0 45  0.00000000
PC01 -32312.642653  27068.692359   -721.510142    268.128215
PC02   4420.281273  41928.792192   1101.949624    671.875924
PC03 -14842.420917  39493.414259    401.185070    225.537315
PC04 -39607.334066  14413.605010   -306.925369   -429.972260
PC05  21859.488814  36065.296307   1310.168435   -247.531757
PC06 -11369.947151  37091.690044  17339.204222    283.948819
PC07 -14194.500885  22009.079801 -32894.068179    165.163667
PC08 -24885.752644  28883.717695  17752.243631    -57.423146
PC09  -2222.538609  42236.944461   2505.969222    192.998306
PC10   3910.659066  28123.544137 -30897.316982 999999.999999
PC11  -3043.413720  26668.544700   7583.613762    -64.717904
PC12 -13824.684495  21714.089732 -10690.961210    304.017607
PC13 -10323.554795  29371.096205  28379.583306    159.530632
PC14   6460.958691  22280.170687  15494.864213    369.077447
PC16  -8884.654396  38434.899129  15165.979154   -922.097188
PC19 -14418.688603 -22595.232439  -7770.092553    272.651426
PC20   1731.047062 -18780.656386 -20567.780543   -426.708023
PC21 -17401.883143   3606.959320  21528.440939    100.974531
PC22 -22452.248807 -13410.068186   9770.556894   -526.364138
PC23  24426.715807   3742.491527 -12963.745946   -869.032673
PC24 -12751.953583  16469.608529 -18559.873734   -885.400078
PC25   9028.473210  14000.041400 -22392.309212   -449.596689
PC26 -25672.445162   9936.582784  -4467.835517    499.211705
PC27  16940.936467 -13580.521429  17512.571347    243.843083
PC28  14410.249036   6968.150896  22866.184165    234.868786
PC29  -4362.154865 -23231.620394 -14833.314266    160.693923
PC30   8736.764404 -26404.051240   2181.400139    241.250384
PC32  17371.888757  -3746.983359 -21509.072317   -855.641684
PC33  14441.821791  22541.385907   7851.174890   -677.809225
PC34  -8609.416740  26494.382208  -1812.700225   -316.635008
PC35 -14650.876404  -6601.300634 -22806.219591   -665.980185
PC36  -8466.479704 -14292.247669  22448.911691   -871.784806
PC37  26124.925685  -9026.388792   3932.620848   -911.628237
PE01  -1262.074095  16366.725764 -24626.961536   -753.898089
PE02   1198.107791 -16379.538133  24629.066559     99.221781
PE03  -1712.898998 -27542.641769 -10734.698346   -244.662200
PE04  14482.380006  24691.926485  -7535.621675   -426.665763
PE05  12196.367305 -14263.810545 -22897.387160   -422.189523
PE07 -18889.461520  -7274.859377  21598.404123   -313.713617
PE08 -14697.017193 -24513.763581   7717.385040   6248.187670
PE09  18811.063583   7083.964432 -21727.265439   6219.021844
PE11  20822.727442  -3560.328300  20731.950786    390.493653
PE12   7903.305822  15362.091599  24045.892602   6047.956969
PE13 -20678.017841   3501.364190 -20875.672816    396.445679
PE14   8766.087128  20024.867749  11177.366518   -833.197002
PE15  -8123.563269 -15065.943867 -24136.245093    884.125308
PE18 -17380.844845 -15763.459685 -21842.848264   -929.070234
PE19    231.714512  26799.679023  12564.072532     -2.401796
PE21 -21502.531972   8548.111045 -18455.157265   -571.748209
PE24  29233.301444   4512.976823   1405.348118   5712.292096
PE25  21582.393652  -8497.203490  18401.134973   -498.625190
PE26 -21205.055191  20001.802882  -5100.678456   3755.438533
PE27 -29239.215492  -4364.831999  -1384.984686    323.542555
PE30 -19629.012574 -14823.125213  16452.088665   4299.946156
PE31  19795.731585  14652.937470 -16410.602156   -470.948691
PE33  -9196.996642  24819.306984  13262.440946   -471.453581
PE36  21126.252243 -20027.989613   5382.158246    623.384521
PG01   8098.583261 -18649.218105 -17115.817102   -232.037312
PG02 -21978.066328  14618.023860  -1679.940204   -367.750180
PG03  -3976.711607 -17486.517635 -19680.686908    -54.256498
PG04   1010.081605 -26468.850132  -1830.624000    -21.541677
PG05 -16901.329736   6995.957160  19186.311332     -4.796165
PG06 -22523.837001   3471.414730 -13616.532625   -155.650844
PG07  -9446.966688 -12350.838363  21833.354319   -171.550898
PG08   6575.356491 -22929.333556  11470.184173    -17.000403
PG09  -7305.892877 -24117.669329   8317.222928   -109.898434
PG10  24120.895097  11296.781723  -1575.614903   -174.900217
PG11   5197.590584 -24199.892891 -10544.056966   -417.288500
PG12  -1571.021894  15907.560521 -21462.890485    172.443160
PG13 -12750.012136  16317.035256  16464.865253    -26.190199
PG14  15081.519410  -2277.479206 -21404.763202    -44.406428
PG15  -4289.774722  23823.031876  10172.705451   -265.183956
PG16  18182.977090  -3481.407348  19019.058117   -103.766283
PG17 -13372.940241  -9851.252423 -20316.253864    181.987294
PG18  14636.305707 -19634.866364 -10665.833825    107.156181
PG19 -14826.867003  -1356.383550 -22287.292820   -225.348689
PG20  20368.213316  14614.442565   8972.800570    527.667534
PG21  12372.012625  10307.977516  21893.984578    -69.822765
PG22   4340.409471 -15266.618749 -21083.856972   -777.891575
PG23  -1566.734430 -26297.266658   -163.339716   -149.109781
PG24  -9040.364629  19967.482408 -14925.676299     -6.313432
PG25  13038.764833  18243.879744 -14656.231437    -17.288779
PG26  23725.770600   1968.497569  11970.303419    107.213434
PG27  12334.099539 -13306.859536  19166.598805   -152.610495
PG28 -22912.787584 -12975.248598  -2271.856611    750.246685
PG29   4712.641225  24844.026922   8058.839814     16.677151
PG30 -19059.209332  -4224.727117  18125.420127   -107.574267
PG31  23760.537017  -4880.628002 -11370.903948    -10.286947
PG32  14753.934506   8690.131009 -20277.032375    157.606992
PJ01 -25700.895871  22233.604415  30004.773338   -327.639942
PJ02 -33327.842524  16266.994847 -15580.975239     -0.352232
PJ03 -20681.871886  31653.207533 -14127.722613     -9.641745
PJ07 -25377.390876  33671.308852      5.646399     -0.048907
PR01 -16522.065555  -9976.965240  16678.321962     54.233713
PR02  -6539.183162   9682.572436  22711.660429    402.766957
PR03   6122.370708  20944.352311  13284.678938      6.607729
PR05  15621.338216   8008.905321 -18515.027864     41.362361
PR07  -6482.646335 -21073.780441 -12763.612308    -30.813092
PR08 -15225.557931 -20133.100121   3668.111526     13.738808
PR09  16594.502286  -9262.808123  16994.758528    106.645682
PR11 -17369.006701  -7340.734494  17216.724515     16.402297
PR12 -25381.988007    318.284994   2398.699282     88.556471
PR13 -19016.955316   8317.110573 -14840.512562    -32.332474
PR14  -1653.658330  11064.832686 -22910.249440     46.137679
PR15  16596.302178   7559.652833 -17815.420063    105.299303
PR16  25480.258410   -947.500040  -2007.547757     -0.494061
PR17  -7176.085046  22834.929643   8772.029727    284.449597
PR18   3555.544128  13922.339992  21109.488279     18.230252
PR19  12379.815148  -1983.441176  22221.785771    -69.288485
PR20  14814.986367 -18599.991132   9192.973643   -399.035427
PR21   6802.161739 -22684.795370  -9510.757519    -92.120002
PR22  -5383.199815 -11258.532470 -22214.217097     -5.800046
PR23 -14177.933528   8270.621600 -19525.069554    273.672310
PR26  14904.233525 -16417.199758  12653.344494     14.648290
EOF
